STARLINK-36715          
1 67716U 26025Z   26051.25002315 -.01509882  65343-3 -43434-2 0  9993
2 67716  97.2712 161.9645 0001431  61.8064 327.7462 15.93179319  3106
STARLINK-36385          
1 67717U 26025AA  26051.25002315 -.01540366  67183-3 -46473-2 0  9996
2 67717  97.2712 161.9538 0001531  55.9865 310.3598 15.92262777  3100
CZ-2F DEB               
1 67718U 26024E   26051.20723713  .00189567  00000+0  37379-2 0  9998
2 67718  50.3132 104.1516 0256681 211.2562 147.2916 15.17864835  1975
CZ-2F DEB               
1 67719U 26024F   26051.30512538  .00130330  00000+0  33155-2 0  9993
2 67719  49.7902 105.2455 0330475 201.8149 156.8440 14.98191300  1636
CZ-2F DEB               
1 67720U 26024G   26051.26176781  .00131220  00000+0  34282-2 0  9997
2 67720  49.8292 105.7164 0341181 198.1450 160.7067 14.95509669  1943
STARLINK-36746          
1 67733U 26026N   26050.66668981 -.01616295  78657-3 -34510-2 0  9998
2 67733  97.2739 104.3113 0001254  83.8379 297.8192 15.98739130  2419
STARLINK-36749          
1 67734U 26026P   26050.66668981 -.01612323  78461-3 -34065-2 0  9995
2 67734  97.2738 104.3125 0001248  89.4627 295.3181 15.98927592  2415
STARLINK-36691          
1 67735U 26026Q   26050.66668981 -.01591595  77033-3 -32673-2 0  9990
2 67735  97.2734 104.3160 0001288  80.4194 312.5836 15.99439141  2558
STARLINK-36317          
1 67736U 26026R   26050.66668981 -.01600782  77646-3 -33325-2 0  9995
2 67736  97.2733 104.3138 0001305  80.5214 308.5035 15.99190319  2419
STARLINK-36330          
1 67737U 26026S   26050.66668981 -.01581379  76249-3 -32178-2 0  9999
2 67737  97.2730 104.3169 0001272  74.7007 320.9843 15.99595065  2411
STARLINK-36327          
1 67738U 26026T   26050.66668981 -.01577144  76046-3 -31719-2 0  9990
2 67738  97.2729 104.3184 0001340  73.1637 325.8563 15.99801899  2413
STARLINK-36329          
1 67739U 26026U   26050.66668981 -.01536166  73406-3 -28851-2 0  9990
2 67739  97.2717 104.3263 0001220  75.7674 342.7608 16.01002856  2413
